     2.100          NAVIGATION                              RINEX VERSION / TYPE
fic2rin                                 06/02/2009 01:46:48 PGM / RUN BY / DATE
                                                            END OF HEADER
 1 09  6  1 22  0  0.0 -.839959830046D-04  .659383658785D-11  .000000000000D+00
     .160000000000D+02 -.180000000000D+02  .615918512621D-08  .193407890693D+01
    -.104494392872D-05  .344120466616D-02  .588968396187D-05  .515376223755D+04
     .165600000000D+06 -.126659870148D-06 -.262228206002D+01 -.596046447754D-07
     .960999420935D+00  .265875000000D+03  .901910385193D+00 -.823427156189D-08
     .321441960776D-11  .100000000000D+01  .153400000000D+04  .000000000000D+00
     .240000000000D+01  .630000000000D+02 -.130385160446D-07  .160000000000D+02
     .158406000000D+06  .400000000000D+01
 2 09  6  1 22  0  0.0  .155296642333D-03  .909494701773D-12  .000000000000D+00
     .260000000000D+02  .665312500000D+02  .478484216502D-08 -.609414924783D+00
     .342167913914D-05  .905071245506D-02  .885128974915D-05  .515366394615D+04
     .165600000000D+06  .707805156708D-07 -.533884413149D+00 -.273808836937D-06
     .941445412740D+00  .202687500000D+03  .282853487894D+01 -.823284293095D-08
     .692886004340D-10  .100000000000D+01  .153400000000D+04  .000000000000D+00
     .240000000000D+01  .000000000000D+00 -.172294676304D-07  .260000000000D+02
     .158406000000D+06  .400000000000D+01
 3 09  6  1 22  0  0.0  .400959514081D-03  .511590769747D-11  .000000000000D+00
     .890000000000D+02 -.384062500000D+02  .543094050619D-08 -.941029565110D+00
    -.202283263206D-05  .118798509939D-01  .892952084541D-05  .515363076019D+04
     .165600000000D+06  .167638063431D-06 -.168183066647D+01  .245869159698D-06
     .925935897587D+00  .186812500000D+03  .901327286528D+00 -.856535678149D-08
    -.534307970357D-09  .100000000000D+01  .153400000000D+04  .000000000000D+00
     .340000000000D+01  .000000000000D+00 -.419095158577D-08  .890000000000D+02
     .158406000000D+06  .400000000000D+01
 4 09  6  1 22  0  0.0 -.115346629173D-03 -.156887836056D-10  .000000000000D+00
     .570000000000D+02  .693437500000D+02  .477484174847D-08  .226242027975D+01
     .353157520294D-05  .859714613762D-02  .906735658646D-05  .515375304413D+04
     .165600000000D+06 -.160187482834D-06 -.515523538996D+00 -.614672899246D-07
     .940665573537D+00  .196312500000D+03  .486926022858D+00 -.817962642856D-08
     .550022910662D-10  .100000000000D+01  .153400000000D+04  .000000000000D+00
     .240000000000D+01  .000000000000D+00 -.605359673500D-08  .570000000000D+02
     .158406000000D+06  .400000000000D+01
 5 09  6  1 22  0  0.0 -.111158471555D-03 -.220552465180D-10  .000000000000D+00
     .240000000000D+02 -.160625000000D+02  .516735809835D-08  .197569286980D+01
    -.114925205708D-05  .970424234401D-02  .553391873837D-05  .515355168915D+04
     .165600000000D+06  .186264514923D-08 -.271196854673D+01 -.232830643654D-06
     .946393168457D+00  .262593750000D+03  .130819422804D+01 -.831856078716D-08
     .321441960776D-10  .100000000000D+01  .153400000000D+04  .000000000000D+00
     .485000000000D+01  .630000000000D+02 -.419095158577D-08  .240000000000D+02
     .158406000000D+06  .400000000000D+01
 6 09  6  1 22  0  0.0  .145662575960D-03  .140971678775D-10  .000000000000D+00
     .560000000000D+02 -.422500000000D+02  .516985820249D-08  .150576758910D+01
    -.250339508057D-05  .599949865136D-02  .949017703533D-05  .515370269203D+04
     .165600000000D+06  .968575477600D-07 -.161417244764D+01 -.141561031342D-06
     .933408578225D+00  .177937500000D+03 -.135568042162D+01 -.832963267692D-08
    -.521093134192D-09  .100000000000D+01  .153400000000D+04  .000000000000D+00
     .240000000000D+01  .000000000000D+00 -.465661287308D-08  .560000000000D+02
     .158406000000D+06  .400000000000D+01
 7 09  6  1 22  0  0.0  .178362242877D-04 -.682121026330D-12  .000000000000D+00
     .350000000000D+02 -.350000000000D+01  .446304304651D-08 -.230902313999D+01
    -.121071934700D-06  .261270266492D-02  .949017703533D-05  .515366828346D+04
     .165600000000D+06 -.726431608200D-07  .262137636744D+01 -.577419996262D-07
     .967673933469D+00  .203687500000D+03  .287872148763D+01 -.792247285994D-08
     .322870591713D-09  .100000000000D+01  .153400000000D+04  .000000000000D+00
     .240000000000D+01  .000000000000D+00 -.107102096081D-07  .350000000000D+02
     .158406000000D+06  .400000000000D+01
 8 09  6  1 22  0  0.0 -.205825548619D-03 -.170530256582D-11  .000000000000D+00
     .450000000000D+02  .225000000000D+01  .391837750187D-08 -.303486216038D+01
     .253319740295D-06  .105989616131D-01  .918097794056D-05  .515364976883D+04
     .165600000000D+06 -.165775418282D-06  .268182702735D+01 -.260770320892D-07
     .988903805024D+00  .220500000000D+03  .299198232572D+01 -.753459956060D-08
     .373944147703D-09  .100000000000D+01  .153400000000D+04  .000000000000D+00
     .340000000000D+01  .000000000000D+00 -.372529029846D-08  .450000000000D+02
     .158406000000D+06  .400000000000D+01
 9 09  6  1 22  0  0.0  .589424744248D-04  .193267624127D-11  .000000000000D+00
     .107000000000D+03  .687500000000D+00  .418195990970D-08  .300942807147D+01
    -.763684511185D-07  .205769663444D-01  .898912549019D-05  .515363701248D+04
     .165600000000D+06  .318512320518D-06  .258741221972D+01 -.137835741043D-06
     .976577242659D+00  .209500000000D+03  .147827108267D+01 -.756781522988D-08
     .292155026572D-09  .100000000000D+01  .153400000000D+04  .000000000000D+00
     .340000000000D+01  .000000000000D+00 -.558793544769D-08  .107000000000D+03
     .158406000000D+06  .400000000000D+01
10 09  6  1 22  0  0.0 -.168802216649D-04 -.568434188608D-12  .000000000000D+00
     .100000000000D+03  .235312500000D+02  .468626663039D-08  .328346680294D+00
     .129640102386D-05  .858854968101D-02  .401027500629D-05  .515361129570D+04
     .165600000000D+06  .130385160446D-07  .550175027078D+00  .137835741043D-06
     .958452092885D+00  .301718750000D+03  .626210821840D+00 -.846035240764D-08
     .432160858377D-10  .100000000000D+01  .153400000000D+04  .000000000000D+00
     .340000000000D+01  .000000000000D+00 -.279396772385D-08  .100000000000D+03
     .158406000000D+06  .400000000000D+01
11 09  6  1 22  0  0.0 -.482425093651D-05 -.147792889038D-11  .000000000000D+00
     .540000000000D+02  .575000000000D+02  .576916888047D-08 -.248777010881D+01
     .296346843243D-05  .937079754658D-02  .101123005152D-04  .515369046974D+04
     .165600000000D+06  .130385160446D-07 -.734197009315D+00 -.763684511185D-07
     .889455134314D+00  .145500000000D+03  .696916138109D+00 -.848285334489D-08
     .950039572962D-10  .100000000000D+01  .153400000000D+04  .000000000000D+00
     .240000000000D+01  .000000000000D+00 -.116415321827D-07  .540000000000D+02
     .158406000000D+06  .400000000000D+01
12 09  6  1 22  0  0.0 -.272706616670D-03  .557065504836D-11  .000000000000D+00
     .370000000000D+02 -.192187500000D+02  .471376777592D-08 -.228780220248D+01
    -.108592212200D-05  .333593052346D-02  .589899718761D-05  .515364482880D+04
     .165600000000D+06 -.106170773506D-06 -.261014743397D+01  .428408384323D-07
     .967118312794D+00  .267125000000D+03 -.693616545399D+00 -.812533845296D-08
    -.457161899771D-10  .100000000000D+01  .153400000000D+04  .000000000000D+00
     .240000000000D+01  .000000000000D+00 -.116415321827D-07  .370000000000D+02
     .158406000000D+06  .400000000000D+01
13 09  6  1 22  0  0.0  .298479106277D-03  .795807864051D-12  .000000000000D+00
     .390000000000D+02 -.575312500000D+02  .380908723520D-08  .181393708005D-01
    -.327453017235D-05  .414962775540D-02  .801123678684D-05  .515370140457D+04
     .165600000000D+06 -.521540641785D-07  .163143125001D+01 -.745058059692D-08
     .994663910373D+00  .244531250000D+03  .157854302662D+01 -.781389690874D-08
    -.800033324599D-10  .100000000000D+01  .153400000000D+04  .000000000000D+00
     .240000000000D+01  .000000000000D+00 -.111758708954D-07  .390000000000D+02
     .158406000000D+06  .400000000000D+01
14 09  6  1 22  0  0.0 -.101380050182D-03  .591171556152D-11  .000000000000D+00
     .320000000000D+02 -.548750000000D+02  .393766401951D-08 -.132700092063D+00
    -.291317701340D-05  .444905192126D-02  .870414078236D-05  .515361396027D+04
     .165600000000D+06 -.223517417908D-07  .161188262975D+01  .260770320892D-07
     .988166637678D+00  .229250000000D+03 -.215545709480D+01 -.791247244338D-08
    -.135719938995D-09  .100000000000D+01  .153400000000D+04  .000000000000D+00
     .240000000000D+01  .000000000000D+00 -.931322574615D-08  .320000000000D+02
     .158406000000D+06  .400000000000D+01
15 09  6  1 22  0  0.0 -.297238584608D-03 -.341060513165D-11  .000000000000D+00
     .111000000000D+03 -.506250000000D+02  .464805075283D-08  .354587906467D-01
    -.260397791862D-05  .143208727241D-02  .742077827454D-05  .515362218475D+04
     .165600000000D+06 -.149011611938D-07  .155921487103D+01 -.111758708954D-07
     .956185336432D+00  .231875000000D+03 -.462012975621D+00 -.821998525252D-08
    -.717887045734D-10  .100000000000D+01  .153400000000D+04  .000000000000D+00
     .340000000000D+01  .000000000000D+00 -.977888703346D-08  .111000000000D+03
     .158406000000D+06  .400000000000D+01
16 09  6  1 22  0  0.0  .457987189293D-04 -.341060513165D-11  .000000000000D+00
     .910000000000D+02 -.164062500000D+02  .481448625696D-08  .153449158768D+01
    -.571832060814D-06  .535990227945D-02  .535137951374D-05  .515354824829D+04
     .165600000000D+06  .782310962677D-07 -.259319516853D+01  .260770320892D-07
     .968556114033D+00  .274968750000D+03 -.350645877671D+00 -.822462830307D-08
    -.130362572982D-09  .100000000000D+01  .153400000000D+04  .000000000000D+00
     .240000000000D+01  .000000000000D+00 -.977888703346D-08  .910000000000D+02
     .158406000000D+06  .400000000000D+01
